{
  "type": "FeatureCollection",
  "features": [
    {
      "type": "Feature",
      "properties": {
        "norad_id": 49537,
        "name": "COSMOS 1408 DEB",
        "group": "cosmos-1408-debris",
        "lat": -56.59106966691776,
        "lon": 93.31721392814497,
        "alt_km": 119.57392898278431,
        "timestamp": "2025-12-03T08:58:46.271800+00:00",
        "meta_object_name": "COSMOS 1408 DEB",
        "meta_object_id": "1982-092AA",
        "meta_epoch": "2025-12-01T10:29:21.651360",
        "meta_mean_motion": 16.33498888,
        "meta_eccentricity": 0.00127731,
        "meta_inclination": 82.5092,
        "meta_ra_of_asc_node": 107.1368,
        "meta_arg_of_pericenter": 299.8571,
        "meta_mean_anomaly": 60.1455,
        "meta_ephemeris_type": 0,
        "meta_classification_type": "U",
        "meta_norad_cat_id": 49537,
        "meta_element_set_no": 999,
        "meta_rev_at_epoch": 22403,
        "meta_bstar": 0.00094222941,
        "meta_mean_motion_dot": 0.05878558,
        "meta_mean_motion_ddot": -1.252052e-06,
        "tle_line1": "1 49537U 82092AA  25335.43705615  .05878558 -12521-5  94223-3 0  9994",
        "tle_line2": "2 49537  82.5092 107.1368 0012773 299.8571  60.1455 16.33498888224033"
      },
      "geometry": {
        "type": "Point",
        "coordinates": [
          93.31721392814497,
          -56.59106966691776
        ]
      }
    },
    {
      "type": "Feature",
      "properties": {
        "norad_id": 50032,
        "name": "COSMOS 1408 DEB",
        "group": "cosmos-1408-debris",
        "lat": -67.41270555376418,
        "lon": -93.59864984898668,
        "alt_km": 427.09044252688636,
        "timestamp": "2025-12-03T08:58:46.271822+00:00",
        "meta_object_name": "COSMOS 1408 DEB",
        "meta_object_id": "1982-092RU",
        "meta_epoch": "2025-12-03T04:47:55.782816",
        "meta_mean_motion": 15.45539666,
        "meta_eccentricity": 0.0014673,
        "meta_inclination": 82.5653,
        "meta_ra_of_asc_node": 68.2848,
        "meta_arg_of_pericenter": 246.0384,
        "meta_mean_anomaly": 113.9328,
        "meta_ephemeris_type": 0,
        "meta_classification_type": "U",
        "meta_norad_cat_id": 50032,
        "meta_element_set_no": 999,
        "meta_rev_at_epoch": 22456,
        "meta_bstar": 0.00015428,
        "meta_mean_motion_dot": 7.475e-05,
        "meta_mean_motion_ddot": 0,
        "tle_line1": "1 50032U 82092RU  25337.19995119  .00007475  00000+0  15428-3 0  9990",
        "tle_line2": "2 50032  82.5653  68.2848 0014673 246.0384 113.9328 15.45539666224561"
      },
      "geometry": {
        "type": "Point",
        "coordinates": [
          -93.59864984898668,
          -67.41270555376418
        ]
      }
    },
    {
      "type": "Feature",
      "properties": {
        "norad_id": 50058,
        "name": "COSMOS 1408 DEB",
        "group": "cosmos-1408-debris",
        "lat": -22.402777067821205,
        "lon": -97.7976427546664,
        "alt_km": 380.0689985265508,
        "timestamp": "2025-12-03T08:58:46.271836+00:00",
        "meta_object_name": "COSMOS 1408 DEB",
        "meta_object_id": "1982-092SW",
        "meta_epoch": "2025-12-02T19:49:36.621120",
        "meta_mean_motion": 15.63203484,
        "meta_eccentricity": 0.0016296,
        "meta_inclination": 82.6133,
        "meta_ra_of_asc_node": 79.7095,
        "meta_arg_of_pericenter": 134.2871,
        "meta_mean_anomaly": 225.9728,
        "meta_ephemeris_type": 0,
        "meta_classification_type": "U",
        "meta_norad_cat_id": 50058,
        "meta_element_set_no": 999,
        "meta_rev_at_epoch": 22649,
        "meta_bstar": 0.00043578,
        "meta_mean_motion_dot": 0.0004023,
        "meta_mean_motion_ddot": 0,
        "tle_line1": "1 50058U 82092SW  25336.82611830  .00040230  00000+0  43578-3 0  9995",
        "tle_line2": "2 50058  82.6133  79.7095 0016296 134.2871 225.9728 15.63203484226494"
      },
      "geometry": {
        "type": "Point",
        "coordinates": [
          -97.7976427546664,
          -22.402777067821205
        ]
      }
    },
    {
      "type": "Feature",
      "properties": {
        "norad_id": 50404,
        "name": "COSMOS 1408 DEB",
        "group": "cosmos-1408-debris",
        "lat": -44.22144026930808,
        "lon": 52.267262864429355,
        "alt_km": 416.316530704009,
        "timestamp": "2025-12-03T08:58:46.271848+00:00",
        "meta_object_name": "COSMOS 1408 DEB",
        "meta_object_id": "1982-092ADS",
        "meta_epoch": "2025-12-03T03:12:53.923680",
        "meta_mean_motion": 15.11741121,
        "meta_eccentricity": 0.0176623,
        "meta_inclination": 82.2064,
        "meta_ra_of_asc_node": 224.8525,
        "meta_arg_of_pericenter": 232.1925,
        "meta_mean_anomaly": 126.3205,
        "meta_ephemeris_type": 0,
        "meta_classification_type": "U",
        "meta_norad_cat_id": 50404,
        "meta_element_set_no": 999,
        "meta_rev_at_epoch": 21048,
        "meta_bstar": 0.003499,
        "meta_mean_motion_dot": 0.00088069,
        "meta_mean_motion_ddot": 0,
        "tle_line1": "1 50404U 82092ADS 25337.13395745  .00088069  00000+0  34990-2 0  9998",
        "tle_line2": "2 50404  82.2064 224.8525 0176623 232.1925 126.3205 15.11741121210482"
      },
      "geometry": {
        "type": "Point",
        "coordinates": [
          52.267262864429355,
          -44.22144026930808
        ]
      }
    },
    {
      "type": "Feature",
      "properties": {
        "norad_id": 50621,
        "name": "COSMOS 1408 DEB",
        "group": "cosmos-1408-debris",
        "lat": 71.36608801747809,
        "lon": -118.84449444589443,
        "alt_km": 389.1066477009608,
        "timestamp": "2025-12-03T08:58:46.271860+00:00",
        "meta_object_name": "COSMOS 1408 DEB",
        "meta_object_id": "1982-092ALR",
        "meta_epoch": "2025-12-03T00:48:05.546592",
        "meta_mean_motion": 15.5587706,
        "meta_eccentricity": 0.002889,
        "meta_inclination": 82.5703,
        "meta_ra_of_asc_node": 84.2784,
        "meta_arg_of_pericenter": 188.0266,
        "meta_mean_anomaly": 172.0531,
        "meta_ephemeris_type": 0,
        "meta_classification_type": "U",
        "meta_norad_cat_id": 50621,
        "meta_element_set_no": 999,
        "meta_rev_at_epoch": 22099,
        "meta_bstar": 0.00051795,
        "meta_mean_motion_dot": 0.00036668,
        "meta_mean_motion_ddot": 0,
        "tle_line1": "1 50621U 82092ALR 25337.03339753  .00036668  00000+0  51795-3 0  9996",
        "tle_line2": "2 50621  82.5703  84.2784 0028890 188.0266 172.0531 15.55877060220997"
      },
      "geometry": {
        "type": "Point",
        "coordinates": [
          -118.84449444589443,
          71.36608801747809
        ]
      }
    }
  ]
}